ISS (ZARYA)             
1 25544U 98067A   24366.81307813  .00027763  00000+0  48311-3 0  9996
2 25544  51.6382  56.2039 0006091  28.0496 332.0820 15.50544003489205
CUTE-1.7+APD II (CO-65) 
1 32785U 08021C   24366.82559545  .00013768  00000+0  10726-2 0  9992
2 32785  97.7702 331.3677 0011784  53.0196 307.2105 15.01274184905087
SWISSCUBE               
1 35932U 09051B   24366.64351943  .00004731  00000+0  98430-3 0  9994
2 35932  98.4477 253.7997 0008256  69.3645 290.8439 14.60509912811360
BEESAT-1                
1 35933U 09051C   24366.62807071  .00004037  00000+0  85010-3 0  9990
2 35933  98.4407 254.4097 0006696  80.7718 279.4238 14.60045994811429
CUBEBUG-2 (LO-74)       
1 39440U 13066AA  24366.58269841  .00014506  00000+0  15499-2 0  9995
2 39440  97.8344 306.7065 0065123 348.9371  11.0409 14.87312040597631
UWE-3                   
1 39446U 13066AG  24366.82204350  .00013531  00000+0  13607-2 0  9998
2 39446  97.8065 313.1254 0054330 289.3921  70.1429 14.90232085598099
DUCHIFAT-3              
1 44854U 19089C   24366.88183096  .00055699  00000+0  18527-2 0  9994
2 44854  36.9504 277.8154 0012599 303.1274  56.8268 15.30078326278416
NANOZOND 1 (RS49S)      
1 57190U 23091AA  25001.15587409  .00048184  00000+0  19524-2 0  9991
2 57190  97.5829  61.6744 0009389 137.8654 222.3306 15.24455151 83636
AAUSAT-II               
1 32788U 08021F   24365.70779946  .00101973  00000+0  25735-2 0  9992
2 32788  97.6043 349.3562 0004057 130.9842 229.1754 15.39440892908309
NEE-02 KRYSAOR          
1 39441U 13066AB  24366.27441709  .00008286  00000+0  98730-3 0  9995
2 39441  97.8430 301.3308 0071750  15.2986 345.0374 14.82715386597117
UKUBE-1                 
1 40074U 14037F   24366.27689761  .00020086  00000+0  15977-2 0  9993
2 40074  98.3678 309.3963 0003271  94.0291 266.1305 15.00452365568260
OPTICUBE 04             
1 41851U 16067D   25001.07728254  .00008506  00000+0  59335-3 0  9998
2 41851  98.0854 180.9074 0018513 110.6144 249.7068 15.05518209444980
AEROCUBE 8C             
1 41853U 16067F   24366.98561055  .00020007  00000+0  11153-2 0  9992
2 41853  98.0924 186.0144 0007736  88.2242 271.9874 15.13605960445241
PROMETHEUS 2-1          
1 41854U 16067G   25001.01680203  .00063644  00000+0  20683-2 0  9993
2 41854  98.0906 197.7067 0009739  89.4729 270.7626 15.31633024445854
PROMETHEUS 2-3          
1 41855U 16067H   24366.82545373  .00063132  00000+0  20593-2 0  9996
2 41855  98.0849 196.7966 0008182  99.6205 260.5959 15.31528932445825
CORVUS BC2              
1 42846U 17042X   24366.42194134  .00009369  00000+0  73890-3 0  9993
2 42846  97.3662 180.9862 0013425 110.3745 249.8924 15.00873902406990
SITRO-AIS 9 (SHCHUKIN)  
1 57201U 23091AM  24366.95560584  .00028911  00000+0  14107-2 0  9998
2 57201  97.5856  59.7611 0011379 143.4400 216.7613 15.18193701 83488
ROBUSTA-1E (ENSO)       
1 58470U 23185J   25001.12316627  .00059760  00000+0  16100-2 0  9995
2 58470  97.3998  73.2450 0008571 299.1586  60.8800 15.37587317 60390
IRIDIUM 105             
1 41921U 17003E   24366.48504363  .00001083  00000+0  37948-3 0  9997
2 41921  86.3970 279.4421 0002025  85.0732 275.0695 14.34231539418782
IRIDIUM 125             
1 42964U 17061K   24366.77387048  .00000546  00000+0  18774-3 0  9999
2 42964  86.3969 247.8036 0001491  69.2922 290.8433 14.34219859378545
IRIDIUM 156             
1 43576U 18061H   24366.78363647  .00000638  00000+0  22070-3 0  9996
2 43576  86.3964 279.1926 0001797  90.4304 269.7097 14.34218975337066
IRIDIUM 179             
1 56730U 23068W   24366.40282495  .00004243  00000+0  55463-3 0  9993
2 56730  86.6782 255.2378 0002350  82.1181 278.0308 14.80253123 87555
